COSMOS 2251 DEB         
1 34121U 93036KS  26115.76908681  .00001035  00000+0  65137-3 0  9995
2 34121  73.9917 227.3765 0238297  43.8252  70.8559 13.92462471869901
COSMOS 2251 DEB         
1 34122U 93036KT  26115.38010220  .00005431  00000+0  92898-3 0  9995
2 34122  74.0354 221.1080 0080490  83.6568 339.0686 14.66955841906434
COSMOS 2251 DEB         
1 34127U 93036KY  26115.57390801  .00002650  00000+0  91687-3 0  9992
2 34127  74.1767 161.7530 0113207 322.4271 203.8442 14.32651238886874
COSMOS 2251 DEB         
1 34128U 93036KZ  26115.79892720  .00046573  00000+0  27078-2 0  9998
2 34128  73.9968  21.0464 0027681 118.4738 298.9946 15.11522315911852
COSMOS 2251 DEB         
1 34129U 93036LA  26115.31267580  .00008751  00000+0  11985-2 0  9993
2 34129  74.0324  77.5922 0032251 132.2376 228.1544 14.78239260632706
COSMOS 2251 DEB         
1 34136U 93036LH  26115.80901860  .00001868  00000+0  23048-3 0  9997
2 34136  74.0166 137.9973 0086612 226.5082 310.3207 14.81057055919944
COSMOS 2251 DEB         
1 34139U 93036LL  26115.72290690  .00006323  00000+0  12735-2 0  9994
2 34139  74.0321 358.2110 0039893  42.1361  14.0996 14.61219552901058
COSMOS 2251 DEB         
1 34141U 93036LN  26115.53220627  .00003248  00000+0  81460-3 0  9994
2 34141  74.0083 137.1268 0050849 194.7181 291.7560 14.50986760896337
COSMOS 2251 DEB         
1 34271U 93036LR  26115.51462032  .00010619  00000+0  15923-2 0  9994
2 34271  74.0187 298.5331 0014572 329.9020  61.3745 14.74614340902046
COSMOS 2251 DEB         
1 34274U 93036LU  26115.62633453  .00003490  00000+0  63365-3 0  9999
2 34274  74.0024 170.2456 0023988 281.9418 234.1609 14.66423725906377
COSMOS 2251 DEB         
1 34276U 93036LW  26115.40239058  .00001887  00000+0  41461-3 0  9991
2 34276  74.0225 190.9931 0023372 299.8419 185.3570 14.58115826905403
COSMOS 2251 DEB         
1 34297U 93036MT  26115.88004255  .00000278  00000+0  10306-3 0  9992
2 34297  74.0502  37.8908 0016135  78.1389 343.9800 14.36745260899913
