[{"OBJECT_NAME":"COSMOS 2251 DEB","OBJECT_ID":"1993-036KS","EPOCH":"2026-04-25T18:27:29.100384","MEAN_MOTION":13.92462471,"ECCENTRICITY":0.0238297,"INCLINATION":73.9917,"RA_OF_ASC_NODE":227.3765,"ARG_OF_PERICENTER":43.8252,"MEAN_ANOMALY":70.8559,"EPHEMERIS_TYPE":0,"CLASSIFICATION_TYPE":"U","NORAD_CAT_ID":34121,"ELEMENT_SET_NO":999,"REV_AT_EPOCH":86990,"BSTAR":0.00065137,"MEAN_MOTION_DOT":1.035e-5,"MEAN_MOTION_DDOT":0},{"OBJECT_NAME":"COSMOS 2251 DEB","OBJECT_ID":"1993-036KT","EPOCH":"2026-04-25T09:07:20.830080","MEAN_MOTION":14.66955841,"ECCENTRICITY":0.0080491,"INCLINATION":74.0354,"RA_OF_ASC_NODE":221.108,"ARG_OF_PERICENTER":83.6568,"MEAN_ANOMALY":339.0686,"EPHEMERIS_TYPE":0,"CLASSIFICATION_TYPE":"U","NORAD_CAT_ID":34122,"ELEMENT_SET_NO":999,"REV_AT_EPOCH":90643,"BSTAR":0.00092898,"MEAN_MOTION_DOT":5.431e-5,"MEAN_MOTION_DDOT":0},{"OBJECT_NAME":"COSMOS 2251 DEB","OBJECT_ID":"1993-036KY","EPOCH":"2026-04-25T13:46:25.652064","MEAN_MOTION":14.32651238,"ECCENTRICITY":0.0113207,"INCLINATION":74.1767,"RA_OF_ASC_NODE":161.753,"ARG_OF_PERICENTER":322.4271,"MEAN_ANOMALY":203.8442,"EPHEMERIS_TYPE":0,"CLASSIFICATION_TYPE":"U","NORAD_CAT_ID":34127,"ELEMENT_SET_NO":999,"REV_AT_EPOCH":88687,"BSTAR":0.00091687,"MEAN_MOTION_DOT":2.65e-5,"MEAN_MOTION_DDOT":0},{"OBJECT_NAME":"COSMOS 2251 DEB","OBJECT_ID":"1993-036KZ","EPOCH":"2026-04-25T19:10:27.310080","MEAN_MOTION":15.11522315,"ECCENTRICITY":0.0027682,"INCLINATION":73.9968,"RA_OF_ASC_NODE":21.0464,"ARG_OF_PERICENTER":118.4738,"MEAN_ANOMALY":298.9946,"EPHEMERIS_TYPE":0,"CLASSIFICATION_TYPE":"U","NORAD_CAT_ID":34128,"ELEMENT_SET_NO":999,"REV_AT_EPOCH":91185,"BSTAR":0.0027078,"MEAN_MOTION_DOT":0.00046573,"MEAN_MOTION_DDOT":0},{"OBJECT_NAME":"COSMOS 2251 DEB","OBJECT_ID":"1993-036LA","EPOCH":"2026-04-25T07:30:15.189120","MEAN_MOTION":14.7823926,"ECCENTRICITY":0.0032252,"INCLINATION":74.0324,"RA_OF_ASC_NODE":77.5922,"ARG_OF_PERICENTER":132.2376,"MEAN_ANOMALY":228.1544,"EPHEMERIS_TYPE":0,"CLASSIFICATION_TYPE":"U","NORAD_CAT_ID":34129,"ELEMENT_SET_NO":999,"REV_AT_EPOCH":63270,"BSTAR":0.0011985,"MEAN_MOTION_DOT":8.751e-5,"MEAN_MOTION_DDOT":0},{"OBJECT_NAME":"COSMOS 2251 DEB","OBJECT_ID":"1993-036LH","EPOCH":"2026-04-25T19:24:59.207040","MEAN_MOTION":14.81057055,"ECCENTRICITY":0.0086613,"INCLINATION":74.0166,"RA_OF_ASC_NODE":137.9973,"ARG_OF_PERICENTER":226.5082,"MEAN_ANOMALY":310.3207,"EPHEMERIS_TYPE":0,"CLASSIFICATION_TYPE":"U","NORAD_CAT_ID":34136,"ELEMENT_SET_NO":999,"REV_AT_EPOCH":91994,"BSTAR":0.00023048,"MEAN_MOTION_DOT":1.868e-5,"MEAN_MOTION_DDOT":0},{"OBJECT_NAME":"COSMOS 2251 DEB","OBJECT_ID":"1993-036LL","EPOCH":"2026-04-25T17:20:59.156160","MEAN_MOTION":14.61219552,"ECCENTRICITY":0.0039893,"INCLINATION":74.0321,"RA_OF_ASC_NODE":358.211,"ARG_OF_PERICENTER":42.1361,"MEAN_ANOMALY":14.0996,"EPHEMERIS_TYPE":0,"CLASSIFICATION_TYPE":"U","NORAD_CAT_ID":34139,"ELEMENT_SET_NO":999,"REV_AT_EPOCH":90105,"BSTAR":0.0012735,"MEAN_MOTION_DOT":6.323e-5,"MEAN_MOTION_DDOT":0},{"OBJECT_NAME":"COSMOS 2251 DEB","OBJECT_ID":"1993-036LN","EPOCH":"2026-04-25T12:46:22.620864","MEAN_MOTION":14.5098676,"ECCENTRICITY":0.0050849,"INCLINATION":74.0083,"RA_OF_ASC_NODE":137.1268,"ARG_OF_PERICENTER":194.7181,"MEAN_ANOMALY":291.756,"EPHEMERIS_TYPE":0,"CLASSIFICATION_TYPE":"U","NORAD_CAT_ID":34141,"ELEMENT_SET_NO":999,"REV_AT_EPOCH":89633,"BSTAR":0.0008146,"MEAN_MOTION_DOT":3.248e-5,"MEAN_MOTION_DDOT":0},{"OBJECT_NAME":"COSMOS 2251 DEB","OBJECT_ID":"1993-036LR","EPOCH":"2026-04-25T12:21:03.194784","MEAN_MOTION":14.7461434,"ECCENTRICITY":0.0014572,"INCLINATION":74.0187,"RA_OF_ASC_NODE":298.5331,"ARG_OF_PERICENTER":329.902,"MEAN_ANOMALY":61.3745,"EPHEMERIS_TYPE":0,"CLASSIFICATION_TYPE":"U","NORAD_CAT_ID":34271,"ELEMENT_SET_NO":999,"REV_AT_EPOCH":90204,"BSTAR":0.0015923,"MEAN_MOTION_DOT":0.00010619,"MEAN_MOTION_DDOT":0},{"OBJECT_NAME":"COSMOS 2251 DEB","OBJECT_ID":"1993-036LU","EPOCH":"2026-04-25T15:01:55.303392","MEAN_MOTION":14.66423725,"ECCENTRICITY":0.0023988,"INCLINATION":74.0024,"RA_OF_ASC_NODE":170.2456,"ARG_OF_PERICENTER":281.9418,"MEAN_ANOMALY":234.1609,"EPHEMERIS_TYPE":0,"CLASSIFICATION_TYPE":"U","NORAD_CAT_ID":34274,"ELEMENT_SET_NO":999,"REV_AT_EPOCH":90637,"BSTAR":0.00063365,"MEAN_MOTION_DOT":3.49e-5,"MEAN_MOTION_DDOT":0},{"OBJECT_NAME":"COSMOS 2251 DEB","OBJECT_ID":"1993-036LW","EPOCH":"2026-04-25T09:39:26.546112","MEAN_MOTION":14.58115826,"ECCENTRICITY":0.0023373,"INCLINATION":74.0225,"RA_OF_ASC_NODE":190.9931,"ARG_OF_PERICENTER":299.8419,"MEAN_ANOMALY":185.357,"EPHEMERIS_TYPE":0,"CLASSIFICATION_TYPE":"U","NORAD_CAT_ID":34276,"ELEMENT_SET_NO":999,"REV_AT_EPOCH":90540,"BSTAR":0.00041461,"MEAN_MOTION_DOT":1.887e-5,"MEAN_MOTION_DDOT":0},{"OBJECT_NAME":"COSMOS 2251 DEB","OBJECT_ID":"1993-036MT","EPOCH":"2026-04-25T21:07:15.676320","MEAN_MOTION":14.3674526,"ECCENTRICITY":0.0016135,"INCLINATION":74.0502,"RA_OF_ASC_NODE":37.8908,"ARG_OF_PERICENTER":78.1389,"MEAN_ANOMALY":343.98,"EPHEMERIS_TYPE":0,"CLASSIFICATION_TYPE":"U","NORAD_CAT_ID":34297,"ELEMENT_SET_NO":999,"REV_AT_EPOCH":89991,"BSTAR":0.00010306,"MEAN_MOTION_DOT":2.78e-6,"MEAN_MOTION_DDOT":0}]
